KUIPER-00061            
1 64521U 25134X   25354.88978803  .00001818  00000+0  26513-3 0  9990
2 64521  51.9005 216.4767 0005505  23.6138 336.5076 14.80321342 28469
KUIPER-00062            
1 64522U 25134Y   25354.82579889  .00001063  00000+0  15004-3 0  9991
2 64522  51.8951 221.4914 0007196  39.6771 320.4719 14.85104003 28405
KUIPER-00063            
1 64523U 25134Z   25354.91668981  .00035110  00000+0  49388-2 0  9995
2 64523  51.9003 226.3560 0002283  29.6411 172.1514 14.77016513  3663
KUIPER-00064            
1 64524U 25134AA  25354.88753167 -.00003694  00000+0 -45565-3 0  9991
2 64524  51.9013 223.9637 0008223  97.9579 262.2317 14.79898582 28379
KUIPER-00065            
1 64525U 25134AB  25353.95168748  .00002662  00000+0  37602-3 0  9999
2 64525  51.9013 233.4081 0011127  19.2710 340.8671 14.80172640 28143
KUIPER-00066            
1 64526U 25134AC  25354.91708400  .00008907  00000+0  40927-3 0  9994
2 64526  51.8906 196.1124 0000514 112.9595 247.1440 15.21092277 28761
KUIPER-00069            
1 64816U 25151A   25354.16272776 -.00008181  00000+0 -10415-2 0  9998
2 64816  51.9020 272.2665 0007212  25.9731 334.1593 14.80058675 24988
KUIPER-00070            
1 64817U 25151B   25354.84601348  .00003196  00000+0  44791-3 0  9999
2 64817  51.9010 294.2118 0010780 355.8024   4.2847 14.79936633 24747
