<?xml version="1.0" encoding="UTF-8"?>
<ndm xmlns:xsi="http://www.w3.org/2001/XMLSchema-instance" xsi:noNamespaceSchemaLocation="https://sanaregistry.org/r/ndmxml_unqualified/ndmxml-2.0.0-master-2.0.xsd">
<omm id="CCSDS_OMM_VERS" version="2.0">
<header><CREATION_DATE/><ORIGINATOR/></header><body><segment><metadata><OBJECT_NAME>KUIPER-00061</OBJECT_NAME><OBJECT_ID>2025-134X</OBJECT_ID><CENTER_NAME>EARTH</CENTER_NAME><REF_FRAME>TEME</REF_FRAME><TIME_SYSTEM>UTC</TIME_SYSTEM><MEAN_ELEMENT_THEORY>SGP4</MEAN_ELEMENT_THEORY></metadata><data><meanElements><EPOCH>2025-12-20T21:21:17.685792</EPOCH><MEAN_MOTION>14.80321342</MEAN_MOTION><ECCENTRICITY>.00055053</ECCENTRICITY><INCLINATION>51.9005</INCLINATION><RA_OF_ASC_NODE>216.4767</RA_OF_ASC_NODE><ARG_OF_PERICENTER>23.6138</ARG_OF_PERICENTER><MEAN_ANOMALY>336.5076</MEAN_ANOMALY></meanElements><tleParameters><EPHEMERIS_TYPE>0</EPHEMERIS_TYPE><CLASSIFICATION_TYPE>U</CLASSIFICATION_TYPE><NORAD_CAT_ID>64521</NORAD_CAT_ID><ELEMENT_SET_NO>999</ELEMENT_SET_NO><REV_AT_EPOCH>2846</REV_AT_EPOCH><BSTAR>.26513132E-3</BSTAR><MEAN_MOTION_DOT>.1818E-4</MEAN_MOTION_DOT><MEAN_MOTION_DDOT>0</MEAN_MOTION_DDOT></tleParameters></data></segment></body></omm>
<omm id="CCSDS_OMM_VERS" version="2.0">
<header><CREATION_DATE/><ORIGINATOR/></header><body><segment><metadata><OBJECT_NAME>KUIPER-00062</OBJECT_NAME><OBJECT_ID>2025-134Y</OBJECT_ID><CENTER_NAME>EARTH</CENTER_NAME><REF_FRAME>TEME</REF_FRAME><TIME_SYSTEM>UTC</TIME_SYSTEM><MEAN_ELEMENT_THEORY>SGP4</MEAN_ELEMENT_THEORY></metadata><data><meanElements><EPOCH>2025-12-20T19:49:09.024096</EPOCH><MEAN_MOTION>14.85104003</MEAN_MOTION><ECCENTRICITY>.00071967</ECCENTRICITY><INCLINATION>51.8951</INCLINATION><RA_OF_ASC_NODE>221.4914</RA_OF_ASC_NODE><ARG_OF_PERICENTER>39.6771</ARG_OF_PERICENTER><MEAN_ANOMALY>320.4719</MEAN_ANOMALY></meanElements><tleParameters><EPHEMERIS_TYPE>0</EPHEMERIS_TYPE><CLASSIFICATION_TYPE>U</CLASSIFICATION_TYPE><NORAD_CAT_ID>64522</NORAD_CAT_ID><ELEMENT_SET_NO>999</ELEMENT_SET_NO><REV_AT_EPOCH>2840</REV_AT_EPOCH><BSTAR>.15004033E-3</BSTAR><MEAN_MOTION_DOT>.1063E-4</MEAN_MOTION_DOT><MEAN_MOTION_DDOT>0</MEAN_MOTION_DDOT></tleParameters></data></segment></body></omm>
<omm id="CCSDS_OMM_VERS" version="2.0">
<header><CREATION_DATE/><ORIGINATOR/></header><body><segment><metadata><OBJECT_NAME>KUIPER-00063</OBJECT_NAME><OBJECT_ID>2025-134Z</OBJECT_ID><CENTER_NAME>EARTH</CENTER_NAME><REF_FRAME>TEME</REF_FRAME><TIME_SYSTEM>UTC</TIME_SYSTEM><MEAN_ELEMENT_THEORY>SGP4</MEAN_ELEMENT_THEORY></metadata><data><meanElements><EPOCH>2025-12-20T22:00:01.999584</EPOCH><MEAN_MOTION>14.77016513</MEAN_MOTION><ECCENTRICITY>.00022839</ECCENTRICITY><INCLINATION>51.9003</INCLINATION><RA_OF_ASC_NODE>226.3560</RA_OF_ASC_NODE><ARG_OF_PERICENTER>29.6411</ARG_OF_PERICENTER><MEAN_ANOMALY>172.1514</MEAN_ANOMALY></meanElements><tleParameters><EPHEMERIS_TYPE>0</EPHEMERIS_TYPE><CLASSIFICATION_TYPE>U</CLASSIFICATION_TYPE><NORAD_CAT_ID>64523</NORAD_CAT_ID><ELEMENT_SET_NO>999</ELEMENT_SET_NO><REV_AT_EPOCH>366</REV_AT_EPOCH><BSTAR>.49387524E-2</BSTAR><MEAN_MOTION_DOT>.3511E-3</MEAN_MOTION_DOT><MEAN_MOTION_DDOT>0</MEAN_MOTION_DDOT></tleParameters></data></segment></body></omm>
<omm id="CCSDS_OMM_VERS" version="2.0">
<header><CREATION_DATE/><ORIGINATOR/></header><body><segment><metadata><OBJECT_NAME>KUIPER-00064</OBJECT_NAME><OBJECT_ID>2025-134AA</OBJECT_ID><CENTER_NAME>EARTH</CENTER_NAME><REF_FRAME>TEME</REF_FRAME><TIME_SYSTEM>UTC</TIME_SYSTEM><MEAN_ELEMENT_THEORY>SGP4</MEAN_ELEMENT_THEORY></metadata><data><meanElements><EPOCH>2025-12-20T21:18:02.736288</EPOCH><MEAN_MOTION>14.79898582</MEAN_MOTION><ECCENTRICITY>.00082237</ECCENTRICITY><INCLINATION>51.9013</INCLINATION><RA_OF_ASC_NODE>223.9637</RA_OF_ASC_NODE><ARG_OF_PERICENTER>97.9579</ARG_OF_PERICENTER><MEAN_ANOMALY>262.2317</MEAN_ANOMALY></meanElements><tleParameters><EPHEMERIS_TYPE>0</EPHEMERIS_TYPE><CLASSIFICATION_TYPE>U</CLASSIFICATION_TYPE><NORAD_CAT_ID>64524</NORAD_CAT_ID><ELEMENT_SET_NO>999</ELEMENT_SET_NO><REV_AT_EPOCH>2837</REV_AT_EPOCH><BSTAR>-.45564558E-3</BSTAR><MEAN_MOTION_DOT>-.3694E-4</MEAN_MOTION_DOT><MEAN_MOTION_DDOT>0</MEAN_MOTION_DDOT></tleParameters></data></segment></body></omm>
<omm id="CCSDS_OMM_VERS" version="2.0">
<header><CREATION_DATE/><ORIGINATOR/></header><body><segment><metadata><OBJECT_NAME>KUIPER-00065</OBJECT_NAME><OBJECT_ID>2025-134AB</OBJECT_ID><CENTER_NAME>EARTH</CENTER_NAME><REF_FRAME>TEME</REF_FRAME><TIME_SYSTEM>UTC</TIME_SYSTEM><MEAN_ELEMENT_THEORY>SGP4</MEAN_ELEMENT_THEORY></metadata><data><meanElements><EPOCH>2025-12-19T22:50:25.798272</EPOCH><MEAN_MOTION>14.80172640</MEAN_MOTION><ECCENTRICITY>.0011127</ECCENTRICITY><INCLINATION>51.9013</INCLINATION><RA_OF_ASC_NODE>233.4081</RA_OF_ASC_NODE><ARG_OF_PERICENTER>19.2710</ARG_OF_PERICENTER><MEAN_ANOMALY>340.8671</MEAN_ANOMALY></meanElements><tleParameters><EPHEMERIS_TYPE>0</EPHEMERIS_TYPE><CLASSIFICATION_TYPE>U</CLASSIFICATION_TYPE><NORAD_CAT_ID>64525</NORAD_CAT_ID><ELEMENT_SET_NO>999</ELEMENT_SET_NO><REV_AT_EPOCH>2814</REV_AT_EPOCH><BSTAR>.37602E-3</BSTAR><MEAN_MOTION_DOT>.2662E-4</MEAN_MOTION_DOT><MEAN_MOTION_DDOT>0</MEAN_MOTION_DDOT></tleParameters></data></segment></body></omm>
<omm id="CCSDS_OMM_VERS" version="2.0">
<header><CREATION_DATE/><ORIGINATOR/></header><body><segment><metadata><OBJECT_NAME>KUIPER-00066</OBJECT_NAME><OBJECT_ID>2025-134AC</OBJECT_ID><CENTER_NAME>EARTH</CENTER_NAME><REF_FRAME>TEME</REF_FRAME><TIME_SYSTEM>UTC</TIME_SYSTEM><MEAN_ELEMENT_THEORY>SGP4</MEAN_ELEMENT_THEORY></metadata><data><meanElements><EPOCH>2025-12-20T22:00:36.057600</EPOCH><MEAN_MOTION>15.21092277</MEAN_MOTION><ECCENTRICITY>.0000514</ECCENTRICITY><INCLINATION>51.8906</INCLINATION><RA_OF_ASC_NODE>196.1124</RA_OF_ASC_NODE><ARG_OF_PERICENTER>112.9595</ARG_OF_PERICENTER><MEAN_ANOMALY>247.1440</MEAN_ANOMALY></meanElements><tleParameters><EPHEMERIS_TYPE>0</EPHEMERIS_TYPE><CLASSIFICATION_TYPE>U</CLASSIFICATION_TYPE><NORAD_CAT_ID>64526</NORAD_CAT_ID><ELEMENT_SET_NO>999</ELEMENT_SET_NO><REV_AT_EPOCH>2876</REV_AT_EPOCH><BSTAR>.40927437E-3</BSTAR><MEAN_MOTION_DOT>.8907E-4</MEAN_MOTION_DOT><MEAN_MOTION_DDOT>0</MEAN_MOTION_DDOT></tleParameters></data></segment></body></omm>
<omm id="CCSDS_OMM_VERS" version="2.0">
<header><CREATION_DATE/><ORIGINATOR/></header><body><segment><metadata><OBJECT_NAME>KUIPER-00069</OBJECT_NAME><OBJECT_ID>2025-151A</OBJECT_ID><CENTER_NAME>EARTH</CENTER_NAME><REF_FRAME>TEME</REF_FRAME><TIME_SYSTEM>UTC</TIME_SYSTEM><MEAN_ELEMENT_THEORY>SGP4</MEAN_ELEMENT_THEORY></metadata><data><meanElements><EPOCH>2025-12-20T03:54:19.678464</EPOCH><MEAN_MOTION>14.80058675</MEAN_MOTION><ECCENTRICITY>.00072125</ECCENTRICITY><INCLINATION>51.9020</INCLINATION><RA_OF_ASC_NODE>272.2665</RA_OF_ASC_NODE><ARG_OF_PERICENTER>25.9731</ARG_OF_PERICENTER><MEAN_ANOMALY>334.1593</MEAN_ANOMALY></meanElements><tleParameters><EPHEMERIS_TYPE>0</EPHEMERIS_TYPE><CLASSIFICATION_TYPE>U</CLASSIFICATION_TYPE><NORAD_CAT_ID>64816</NORAD_CAT_ID><ELEMENT_SET_NO>999</ELEMENT_SET_NO><REV_AT_EPOCH>2498</REV_AT_EPOCH><BSTAR>-.10415376E-2</BSTAR><MEAN_MOTION_DOT>-.8181E-4</MEAN_MOTION_DOT><MEAN_MOTION_DDOT>0</MEAN_MOTION_DDOT></tleParameters></data></segment></body></omm>
<omm id="CCSDS_OMM_VERS" version="2.0">
<header><CREATION_DATE/><ORIGINATOR/></header><body><segment><metadata><OBJECT_NAME>KUIPER-00070</OBJECT_NAME><OBJECT_ID>2025-151B</OBJECT_ID><CENTER_NAME>EARTH</CENTER_NAME><REF_FRAME>TEME</REF_FRAME><TIME_SYSTEM>UTC</TIME_SYSTEM><MEAN_ELEMENT_THEORY>SGP4</MEAN_ELEMENT_THEORY></metadata><data><meanElements><EPOCH>2025-12-20T20:18:15.564672</EPOCH><MEAN_MOTION>14.79936633</MEAN_MOTION><ECCENTRICITY>.00107804</ECCENTRICITY><INCLINATION>51.9010</INCLINATION><RA_OF_ASC_NODE>294.2118</RA_OF_ASC_NODE><ARG_OF_PERICENTER>355.8024</ARG_OF_PERICENTER><MEAN_ANOMALY>4.2847</MEAN_ANOMALY></meanElements><tleParameters><EPHEMERIS_TYPE>0</EPHEMERIS_TYPE><CLASSIFICATION_TYPE>U</CLASSIFICATION_TYPE><NORAD_CAT_ID>64817</NORAD_CAT_ID><ELEMENT_SET_NO>999</ELEMENT_SET_NO><REV_AT_EPOCH>2474</REV_AT_EPOCH><BSTAR>.44790763E-3</BSTAR><MEAN_MOTION_DOT>.3196E-4</MEAN_MOTION_DOT><MEAN_MOTION_DDOT>0</MEAN_MOTION_DDOT></tleParameters></data></segment></body></omm>

</ndm>
